{
"type": "FeatureCollection",
"name": "watershed_stream_gages",
"crs": { "type": "name", "properties": { "name": "urn:ogc:def:crs:EPSG::4269" } },
"features": [
{ "type": "Feature", "properties": { "site_no": "01349700", "agency_cd": "USGS", "station_nm": "EAST KILL NEAR JEWETT CENTER NY", "site_tp_cd": "ST", "dec_lat_va": 42.24916667, "dec_long_va": -74.30277778, "coord_acy_cd": "S", "dec_coord_datum_cd": "NAD83", "alt_va": 1451.65, "alt_acy_va": 0.01, "alt_datum_cd": "NAVD88", "huc_cd": 2020005, "BASIN": "Schoharie" }, "geometry": { "type": "Point", "coordinates": [ -74.30277778, 42.24916667 ] } },
{ "type": "Feature", "properties": { "site_no": "01349705", "agency_cd": "USGS", "station_nm": "SCHOHARIE CREEK NEAR LEXINGTON NY", "site_tp_cd": "ST", "dec_lat_va": 42.23694444, "dec_long_va": -74.34027778, "coord_acy_cd": "S", "dec_coord_datum_cd": "NAD83", "alt_va": 1339.23, "alt_acy_va": 0.01, "alt_datum_cd": "NAVD88", "huc_cd": 2020005, "BASIN": "Schoharie" }, "geometry": { "type": "Point", "coordinates": [ -74.34027778, 42.23694444 ] } },
{ "type": "Feature", "properties": { "site_no": "01349711", "agency_cd": "USGS", "station_nm": "WEST KILL BELOW HUNTER BROOK NEAR SPRUCETON NY", "site_tp_cd": "ST", "dec_lat_va": 42.18505556, "dec_long_va": -74.2771111, "coord_acy_cd": "1", "dec_coord_datum_cd": "NAD83", "alt_va": 2038.89, "alt_acy_va": 0.1, "alt_datum_cd": "NAVD88", "huc_cd": 2020005, "BASIN": "Schoharie" }, "geometry": { "type": "Point", "coordinates": [ -74.2771111, 42.18505556 ] } },
{ "type": "Feature", "properties": { "site_no": "01349810", "agency_cd": "USGS", "station_nm": "WEST KILL NEAR WEST KILL NY", "site_tp_cd": "ST", "dec_lat_va": 42.23027778, "dec_long_va": -74.3930556, "coord_acy_cd": "S", "dec_coord_datum_cd": "NAD83", "alt_va": 1370.67, "alt_acy_va": 0.01, "alt_datum_cd": "NGVD29", "huc_cd": 2020005, "BASIN": "Schoharie" }, "geometry": { "type": "Point", "coordinates": [ -74.3930556, 42.23027778 ] } },
{ "type": "Feature", "properties": { "site_no": "01349950", "agency_cd": "USGS", "station_nm": "BATAVIA KILL AT RED FALLS NEAR PRATTSVILLE NY", "site_tp_cd": "ST", "dec_lat_va": 42.3083333, "dec_long_va": -74.39, "coord_acy_cd": "S", "dec_coord_datum_cd": "NAD83", "alt_va": 1268.54, "alt_acy_va": 0.01, "alt_datum_cd": "NAVD88", "huc_cd": 2020005, "BASIN": "Schoharie" }, "geometry": { "type": "Point", "coordinates": [ -74.39, 42.3083333 ] } },
{ "type": "Feature", "properties": { "site_no": "01350000", "agency_cd": "USGS", "station_nm": "SCHOHARIE CREEK AT PRATTSVILLE NY", "site_tp_cd": "ST", "dec_lat_va": 42.31944444, "dec_long_va": -74.4366667, "coord_acy_cd": "S", "dec_coord_datum_cd": "NAD83", "alt_va": 1131.13, "alt_acy_va": 0.01, "alt_datum_cd": "NAVD88", "huc_cd": 2020005, "BASIN": "Schoharie" }, "geometry": { "type": "Point", "coordinates": [ -74.4366667, 42.31944444 ] } },
{ "type": "Feature", "properties": { "site_no": "01350035", "agency_cd": "USGS", "station_nm": "BEAR KILL NEAR PRATTSVILLE NY", "site_tp_cd": "ST", "dec_lat_va": 42.33805556, "dec_long_va": -74.4516667, "coord_acy_cd": "S", "dec_coord_datum_cd": "NAD83", "alt_va": 1156.77, "alt_acy_va": 0.01, "alt_datum_cd": "NAVD88", "huc_cd": 2020005, "BASIN": "Schoharie" }, "geometry": { "type": "Point", "coordinates": [ -74.4516667, 42.33805556 ] } },
{ "type": "Feature", "properties": { "site_no": "01350080", "agency_cd": "USGS", "station_nm": "MANOR KILL AT WEST CONESVILLE NEAR GILBOA NY", "site_tp_cd": "ST", "dec_lat_va": 42.37694444, "dec_long_va": -74.4130556, "coord_acy_cd": "S", "dec_coord_datum_cd": "NAD83", "alt_va": 1254.63, "alt_acy_va": 0.01, "alt_datum_cd": "NAVD88", "huc_cd": 2020005, "BASIN": "Schoharie" }, "geometry": { "type": "Point", "coordinates": [ -74.4130556, 42.37694444 ] } },
{ "type": "Feature", "properties": { "site_no": "01350100", "agency_cd": "USGS", "station_nm": "SCHOHARIE RESERVOIR NEAR GRAND GORGE NY", "site_tp_cd": "LK", "dec_lat_va": 42.3557222, "dec_long_va": -74.44427778, "coord_acy_cd": "1", "dec_coord_datum_cd": "NAD83", "alt_va": null, "alt_acy_va": null, "alt_datum_cd": null, "huc_cd": 2020005, "BASIN": "Schoharie" }, "geometry": { "type": "Point", "coordinates": [ -74.44427778, 42.3557222 ] } },
{ "type": "Feature", "properties": { "site_no": "0136219503", "agency_cd": "USGS", "station_nm": "ESOPUS CREEK BELOW LOST CLOVE RD AT BIG INDIAN NY", "site_tp_cd": "ST", "dec_lat_va": 42.09788889, "dec_long_va": -74.4490833, "coord_acy_cd": "1", "dec_coord_datum_cd": "NAD83", "alt_va": 1225.27, "alt_acy_va": 0.55, "alt_datum_cd": "NAVD88", "huc_cd": 2020006, "BASIN": "Ashokan" }, "geometry": { "type": "Point", "coordinates": [ -74.4490833, 42.09788889 ] } },
{ "type": "Feature", "properties": { "site_no": "013621955", "agency_cd": "USGS", "station_nm": "BIRCH CREEK AT BIG INDIAN NY", "site_tp_cd": "ST", "dec_lat_va": 42.10888889, "dec_long_va": -74.4519444, "coord_acy_cd": "S", "dec_coord_datum_cd": "NAD83", "alt_va": 1227.42, "alt_acy_va": 0.01, "alt_datum_cd": "NAVD88", "huc_cd": 2020006, "BASIN": "Ashokan" }, "geometry": { "type": "Point", "coordinates": [ -74.4519444, 42.10888889 ] } },
{ "type": "Feature", "properties": { "site_no": "01362200", "agency_cd": "USGS", "station_nm": "ESOPUS CREEK AT ALLABEN NY", "site_tp_cd": "ST", "dec_lat_va": 42.11694444, "dec_long_va": -74.38027778, "coord_acy_cd": "S", "dec_coord_datum_cd": "NAD83", "alt_va": 996.98, "alt_acy_va": 0.01, "alt_datum_cd": "NAVD88", "huc_cd": 2020006, "BASIN": "Ashokan" }, "geometry": { "type": "Point", "coordinates": [ -74.38027778, 42.11694444 ] } },
{ "type": "Feature", "properties": { "site_no": "01362230", "agency_cd": "USGS", "station_nm": "DIVERSION FROM SCHOHARIE RESERVOIR NY", "site_tp_cd": "ST-CA", "dec_lat_va": 42.1145, "dec_long_va": -74.3635556, "coord_acy_cd": "1", "dec_coord_datum_cd": "NAD83", "alt_va": 964.39, "alt_acy_va": 0.01, "alt_datum_cd": "NAVD88", "huc_cd": 2020006, "BASIN": "Ashokan" }, "geometry": { "type": "Point", "coordinates": [ -74.3635556, 42.1145 ] } },
{ "type": "Feature", "properties": { "site_no": "01362232", "agency_cd": "USGS", "station_nm": "BROADSTREET HOLLOW BROOK AT HWY28 AT ALLABEN NY", "site_tp_cd": "ST", "dec_lat_va": 42.11255556, "dec_long_va": -74.3586944, "coord_acy_cd": "1", "dec_coord_datum_cd": "NAD83", "alt_va": null, "alt_acy_va": null, "alt_datum_cd": null, "huc_cd": 2020006, "BASIN": "Ashokan" }, "geometry": { "type": "Point", "coordinates": [ -74.3586944, 42.11255556 ] } },
{ "type": "Feature", "properties": { "site_no": "0136230002", "agency_cd": "USGS", "station_nm": "WOODLAND CREEK ABOVE MOUTH AT PHOENICIA NY", "site_tp_cd": "ST", "dec_lat_va": 42.0797222, "dec_long_va": -74.3345833, "coord_acy_cd": "1", "dec_coord_datum_cd": "NAD83", "alt_va": 870.52, "alt_acy_va": 0.01, "alt_datum_cd": "NAVD88", "huc_cd": 2020006, "BASIN": "Ashokan" }, "geometry": { "type": "Point", "coordinates": [ -74.3345833, 42.0797222 ] } },
{ "type": "Feature", "properties": { "site_no": "01362322", "agency_cd": "USGS", "station_nm": "MYRTLE BROOK AT STATE HWY 214 AT EDGEWOOD NY", "site_tp_cd": "ST", "dec_lat_va": 42.1336111, "dec_long_va": -74.23152778, "coord_acy_cd": "1", "dec_coord_datum_cd": "NAD83", "alt_va": 1530.0, "alt_acy_va": 10.0, "alt_datum_cd": "NAVD88", "huc_cd": 2020006, "BASIN": "Ashokan" }, "geometry": { "type": "Point", "coordinates": [ -74.23152778, 42.1336111 ] } },
{ "type": "Feature", "properties": { "site_no": "01362336", "agency_cd": "USGS", "station_nm": "STONY CLOVE CR AT JANSSEN RD AT LANESVILLE NY", "site_tp_cd": "ST", "dec_lat_va": 42.12794444, "dec_long_va": -74.26325, "coord_acy_cd": "1", "dec_coord_datum_cd": "NAD83", "alt_va": 1274.26, "alt_acy_va": 0.14, "alt_datum_cd": "NAVD88", "huc_cd": 2020006, "BASIN": "Ashokan" }, "geometry": { "type": "Point", "coordinates": [ -74.26325, 42.12794444 ] } },
{ "type": "Feature", "properties": { "site_no": "01362342", "agency_cd": "USGS", "station_nm": "HOLLOW TREE BROOK AT LANESVILLE NY", "site_tp_cd": "ST", "dec_lat_va": 42.14175, "dec_long_va": -74.2648611, "coord_acy_cd": "1", "dec_coord_datum_cd": "NAD83", "alt_va": 1476.46, "alt_acy_va": 0.1, "alt_datum_cd": "NAVD88", "huc_cd": 2020006, "BASIN": "Ashokan" }, "geometry": { "type": "Point", "coordinates": [ -74.2648611, 42.14175 ] } },
{ "type": "Feature", "properties": { "site_no": "01362357", "agency_cd": "USGS", "station_nm": "WARNER CREEK NEAR CHICHESTER NY", "site_tp_cd": "ST", "dec_lat_va": 42.09616667, "dec_long_va": -74.2904167, "coord_acy_cd": "1", "dec_coord_datum_cd": "NAD83", "alt_va": 1119.95, "alt_acy_va": 0.09, "alt_datum_cd": "NAVD88", "huc_cd": 2020006, "BASIN": "Ashokan" }, "geometry": { "type": "Point", "coordinates": [ -74.2904167, 42.09616667 ] } },
{ "type": "Feature", "properties": { "site_no": "01362368", "agency_cd": "USGS", "station_nm": "OX CLOVE NEAR MOUTH AT CHICHESTER NY", "site_tp_cd": "ST", "dec_lat_va": 42.10477778, "dec_long_va": -74.3095556, "coord_acy_cd": "1", "dec_coord_datum_cd": "NAD83", "alt_va": null, "alt_acy_va": null, "alt_datum_cd": null, "huc_cd": 2020006, "BASIN": "Ashokan" }, "geometry": { "type": "Point", "coordinates": [ -74.3095556, 42.10477778 ] } },
{ "type": "Feature", "properties": { "site_no": "01362370", "agency_cd": "USGS", "station_nm": "STONY CLOVE CREEK BLW OX CLOVE AT CHICHESTER NY", "site_tp_cd": "ST", "dec_lat_va": 42.10202778, "dec_long_va": -74.31088889, "coord_acy_cd": "1", "dec_coord_datum_cd": "NAD83", "alt_va": 947.52, "alt_acy_va": 0.01, "alt_datum_cd": "NAVD88", "huc_cd": 2020006, "BASIN": "Ashokan" }, "geometry": { "type": "Point", "coordinates": [ -74.31088889, 42.10202778 ] } },
{ "type": "Feature", "properties": { "site_no": "01362487", "agency_cd": "USGS", "station_nm": "BEAVER KILL AT MOUNT TREMPER NY", "site_tp_cd": "ST", "dec_lat_va": 42.046758, "dec_long_va": -74.2768136, "coord_acy_cd": "S", "dec_coord_datum_cd": "NAD83", "alt_va": 700.0, "alt_acy_va": 10.0, "alt_datum_cd": "NAVD88", "huc_cd": 2020006, "BASIN": "Ashokan" }, "geometry": { "type": "Point", "coordinates": [ -74.2768136, 42.046758 ] } },
{ "type": "Feature", "properties": { "site_no": "01362497", "agency_cd": "USGS", "station_nm": "LITTLE BEAVER KILL AT BEECHFORD NEAR MT TREMPER NY", "site_tp_cd": "ST", "dec_lat_va": 42.01944444, "dec_long_va": -74.26638889, "coord_acy_cd": "S", "dec_coord_datum_cd": "NAD83", "alt_va": 658.36, "alt_acy_va": 0.01, "alt_datum_cd": "NAVD88", "huc_cd": 2020006, "BASIN": "Ashokan" }, "geometry": { "type": "Point", "coordinates": [ -74.26638889, 42.01944444 ] } },
{ "type": "Feature", "properties": { "site_no": "01362500", "agency_cd": "USGS", "station_nm": "ESOPUS CREEK AT COLDBROOK NY", "site_tp_cd": "ST", "dec_lat_va": 42.0144722, "dec_long_va": -74.2701944, "coord_acy_cd": "1", "dec_coord_datum_cd": "NAD83", "alt_va": 621.17, "alt_acy_va": 0.18, "alt_datum_cd": "NAVD88", "huc_cd": 2020006, "BASIN": "Ashokan" }, "geometry": { "type": "Point", "coordinates": [ -74.2701944, 42.0144722 ] } },
{ "type": "Feature", "properties": { "site_no": "01363382", "agency_cd": "USGS", "station_nm": "BUSH KILL BLW MALTBY HOLLOW BK AT WEST SHOKAN NY", "site_tp_cd": "ST", "dec_lat_va": 41.96555556, "dec_long_va": -74.2930556, "coord_acy_cd": "S", "dec_coord_datum_cd": "NAD83", "alt_va": 682.34, "alt_acy_va": 0.01, "alt_datum_cd": "NAVD88", "huc_cd": 2020006, "BASIN": "Ashokan" }, "geometry": { "type": "Point", "coordinates": [ -74.2930556, 41.96555556 ] } },
{ "type": "Feature", "properties": { "site_no": "01365000", "agency_cd": "USGS", "station_nm": "RONDOUT CREEK NEAR LOWES CORNERS NY", "site_tp_cd": "ST", "dec_lat_va": 41.86638889, "dec_long_va": -74.4872222, "coord_acy_cd": "S", "dec_coord_datum_cd": "NAD83", "alt_va": 874.68, "alt_acy_va": 0.01, "alt_datum_cd": "NAVD88", "huc_cd": 2020007, "BASIN": "Rondout" }, "geometry": { "type": "Point", "coordinates": [ -74.4872222, 41.86638889 ] } },
{ "type": "Feature", "properties": { "site_no": "01365080", "agency_cd": "USGS", "station_nm": "PEPACTON RES DIV OUTLET NR GRAHAMSVILLE NY", "site_tp_cd": "ST", "dec_lat_va": 41.8598611, "dec_long_va": -74.5099722, "coord_acy_cd": "1", "dec_coord_datum_cd": "NAD83", "alt_va": 833.51, "alt_acy_va": 0.2, "alt_datum_cd": "NAVD88", "huc_cd": 2020007, "BASIN": "Rondout" }, "geometry": { "type": "Point", "coordinates": [ -74.5099722, 41.8598611 ] } },
{ "type": "Feature", "properties": { "site_no": "01365100", "agency_cd": "USGS", "station_nm": "CANNONSVILLE RES DIV CHANNEL NR GRAHAMSVILLE NY", "site_tp_cd": "ST", "dec_lat_va": 41.8521111, "dec_long_va": -74.51302778, "coord_acy_cd": "1", "dec_coord_datum_cd": "NAD83", "alt_va": 833.89, "alt_acy_va": 0.01, "alt_datum_cd": "NAVD88", "huc_cd": 2020007, "BASIN": "Rondout" }, "geometry": { "type": "Point", "coordinates": [ -74.51302778, 41.8521111 ] } },
{ "type": "Feature", "properties": { "site_no": "01365500", "agency_cd": "USGS", "station_nm": "CHESTNUT CREEK AT GRAHAMSVILLE NY", "site_tp_cd": "ST", "dec_lat_va": 41.845, "dec_long_va": -74.5394444, "coord_acy_cd": "S", "dec_coord_datum_cd": "NAD83", "alt_va": 878.31, "alt_acy_va": 0.01, "alt_datum_cd": "NAVD88", "huc_cd": 2020007, "BASIN": "Rondout" }, "geometry": { "type": "Point", "coordinates": [ -74.5394444, 41.845 ] } },
{ "type": "Feature", "properties": { "site_no": "01365505", "agency_cd": "USGS", "station_nm": "NEVERSINK RES DIVERSION CHANNEL AT GRAHAMSVILLE NY", "site_tp_cd": "ST", "dec_lat_va": 41.84555556, "dec_long_va": -74.5360833, "coord_acy_cd": "1", "dec_coord_datum_cd": "NAD83", "alt_va": null, "alt_acy_va": null, "alt_datum_cd": null, "huc_cd": 2020007, "BASIN": "Rondout" }, "geometry": { "type": "Point", "coordinates": [ -74.5360833, 41.84555556 ] } },
{ "type": "Feature", "properties": { "site_no": "01365550", "agency_cd": "USGS", "station_nm": "CHESTNUT CREEK AT MOUTH AT GRAHAMSVILLE NY", "site_tp_cd": "ST", "dec_lat_va": 41.8490833, "dec_long_va": -74.5318333, "coord_acy_cd": "1", "dec_coord_datum_cd": "NAD83", "alt_va": 841.33, "alt_acy_va": 0.01, "alt_datum_cd": "NAVD88", "huc_cd": 2020007, "BASIN": "Rondout" }, "geometry": { "type": "Point", "coordinates": [ -74.5318333, 41.8490833 ] } },
{ "type": "Feature", "properties": { "site_no": "0137449480", "agency_cd": "USGS", "station_nm": "EAST BRANCH CROTON RIVER NEAR PUTNAM LAKE NY", "site_tp_cd": "ST", "dec_lat_va": 41.44725, "dec_long_va": -73.5560833, "coord_acy_cd": "1", "dec_coord_datum_cd": "NAD83", "alt_va": 414.81, "alt_acy_va": 0.01, "alt_datum_cd": "NAVD88", "huc_cd": 2030101, "BASIN": "East Branch" }, "geometry": { "type": "Point", "coordinates": [ -73.5560833, 41.44725 ] } },
{ "type": "Feature", "properties": { "site_no": "01374505", "agency_cd": "USGS", "station_nm": "EAST BRANCH CROTON RIVER AT BREWSTER NY", "site_tp_cd": "ST", "dec_lat_va": 41.3945833, "dec_long_va": -73.6074722, "coord_acy_cd": "1", "dec_coord_datum_cd": "NAD83", "alt_va": 315.74, "alt_acy_va": 0.18, "alt_datum_cd": "NAVD88", "huc_cd": 2030101, "BASIN": "Diverting" }, "geometry": { "type": "Point", "coordinates": [ -73.6074722, 41.3945833 ] } },
{ "type": "Feature", "properties": { "site_no": "01374531", "agency_cd": "USGS", "station_nm": "EAST BRANCH CROTON RIVER NEAR CROTON FALLS NY", "site_tp_cd": "ST", "dec_lat_va": 41.37338889, "dec_long_va": -73.6395833, "coord_acy_cd": "1", "dec_coord_datum_cd": "NAD83", "alt_va": 270.5, "alt_acy_va": 0.12, "alt_datum_cd": "NAVD88", "huc_cd": 2030101, "BASIN": "Muscoot" }, "geometry": { "type": "Point", "coordinates": [ -73.6395833, 41.37338889 ] } },
{ "type": "Feature", "properties": { "site_no": "01374559", "agency_cd": "USGS", "station_nm": "WEST BRANCH CROTON RIVER AT RICHARDSVILLE NY", "site_tp_cd": "ST", "dec_lat_va": 41.4704722, "dec_long_va": -73.7595833, "coord_acy_cd": "1", "dec_coord_datum_cd": "NAD83", "alt_va": 586.6, "alt_acy_va": 0.01, "alt_datum_cd": "NAVD88", "huc_cd": 2030101, "BASIN": "Boyds Corner" }, "geometry": { "type": "Point", "coordinates": [ -73.7595833, 41.4704722 ] } },
{ "type": "Feature", "properties": { "site_no": "01374581", "agency_cd": "USGS", "station_nm": "W BR CROTON RIVER BELOW DAM NEAR KENT CLIFFS NY", "site_tp_cd": "ST", "dec_lat_va": 41.44994444, "dec_long_va": -73.7361111, "coord_acy_cd": "1", "dec_coord_datum_cd": "NAD83", "alt_va": 528.53, "alt_acy_va": 0.11, "alt_datum_cd": "NAVD88", "huc_cd": 2030101, "BASIN": "West Branch" }, "geometry": { "type": "Point", "coordinates": [ -73.7361111, 41.44994444 ] } },
{ "type": "Feature", "properties": { "site_no": "01374598", "agency_cd": "USGS", "station_nm": "HORSE POUND BROOK NEAR LAKE CARMEL NY", "site_tp_cd": "ST", "dec_lat_va": 41.4758611, "dec_long_va": -73.6894722, "coord_acy_cd": "1", "dec_coord_datum_cd": "NAD83", "alt_va": 532.61, "alt_acy_va": 0.18, "alt_datum_cd": "NAVD88", "huc_cd": 2030101, "BASIN": "West Branch" }, "geometry": { "type": "Point", "coordinates": [ -73.6894722, 41.4758611 ] } },
{ "type": "Feature", "properties": { "site_no": "0137462010", "agency_cd": "USGS", "station_nm": "WEST BRANCH CROTON RIVER NEAR CARMEL NY", "site_tp_cd": "ST", "dec_lat_va": 41.41180556, "dec_long_va": -73.69375, "coord_acy_cd": "1", "dec_coord_datum_cd": "NAD83", "alt_va": 446.96, "alt_acy_va": 0.15, "alt_datum_cd": "NAVD88", "huc_cd": 2030101, "BASIN": "Croton Falls" }, "geometry": { "type": "Point", "coordinates": [ -73.69375, 41.41180556 ] } },
{ "type": "Feature", "properties": { "site_no": "01374701", "agency_cd": "USGS", "station_nm": "WEST BRANCH CROTON RIVER NEAR CROTON FALLS NY", "site_tp_cd": "ST", "dec_lat_va": 41.358, "dec_long_va": -73.6679722, "coord_acy_cd": "1", "dec_coord_datum_cd": "NAD83", "alt_va": 205.48, "alt_acy_va": 0.01, "alt_datum_cd": "NAVD88", "huc_cd": 2030101, "BASIN": "Muscoot" }, "geometry": { "type": "Point", "coordinates": [ -73.6679722, 41.358 ] } },
{ "type": "Feature", "properties": { "site_no": "01374781", "agency_cd": "USGS", "station_nm": "TITICUS RIVER BELOW JUNE ROAD AT SALEM CENTER NY", "site_tp_cd": "ST", "dec_lat_va": 41.3273611, "dec_long_va": -73.5914722, "coord_acy_cd": "1", "dec_coord_datum_cd": "NAD83", "alt_va": 331.84, "alt_acy_va": 0.01, "alt_datum_cd": "NAVD88", "huc_cd": 2030101, "BASIN": "Titicus" }, "geometry": { "type": "Point", "coordinates": [ -73.5914722, 41.3273611 ] } },
{ "type": "Feature", "properties": { "site_no": "01374821", "agency_cd": "USGS", "station_nm": "TITICUS RIVER AT PURDYS STATION NY", "site_tp_cd": "ST", "dec_lat_va": 41.3271111, "dec_long_va": -73.65563889000001, "coord_acy_cd": "1", "dec_coord_datum_cd": "NAD83", "alt_va": 199.49, "alt_acy_va": 0.07, "alt_datum_cd": "NAVD88", "huc_cd": 2030101, "BASIN": "Muscoot" }, "geometry": { "type": "Point", "coordinates": [ -73.65563889, 41.3271111 ] } },
{ "type": "Feature", "properties": { "site_no": "01374890", "agency_cd": "USGS", "station_nm": "CROSS RIVER NEAR CROSS RIVER NY", "site_tp_cd": "ST", "dec_lat_va": 41.2602222, "dec_long_va": -73.6018611, "coord_acy_cd": "1", "dec_coord_datum_cd": "NAD83", "alt_va": 333.72, "alt_acy_va": 0.01, "alt_datum_cd": "NAVD88", "huc_cd": 2030101, "BASIN": "Cross River" }, "geometry": { "type": "Point", "coordinates": [ -73.6018611, 41.2602222 ] } },
{ "type": "Feature", "properties": { "site_no": "01374901", "agency_cd": "USGS", "station_nm": "CROSS RIVER AT KATONAH NY", "site_tp_cd": "ST", "dec_lat_va": 41.26605556, "dec_long_va": -73.6660833, "coord_acy_cd": "1", "dec_coord_datum_cd": "NAD83", "alt_va": 203.26, "alt_acy_va": 0.01, "alt_datum_cd": "NAVD88", "huc_cd": 2030101, "BASIN": "Muscoot" }, "geometry": { "type": "Point", "coordinates": [ -73.6660833, 41.26605556 ] } },
{ "type": "Feature", "properties": { "site_no": "01374930", "agency_cd": "USGS", "station_nm": "MUSCOOT RIVER AT BALDWIN PLACE NY", "site_tp_cd": "ST", "dec_lat_va": 41.33813889, "dec_long_va": -73.7686944, "coord_acy_cd": "1", "dec_coord_datum_cd": "NAD83", "alt_va": 498.21, "alt_acy_va": 0.01, "alt_datum_cd": "NAVD88", "huc_cd": 2030101, "BASIN": "Amawalk" }, "geometry": { "type": "Point", "coordinates": [ -73.7686944, 41.33813889 ] } },
{ "type": "Feature", "properties": { "site_no": "01374941", "agency_cd": "USGS", "station_nm": "MUSCOOT RIVER BELOW DAM AT AMAWALK NY", "site_tp_cd": "ST", "dec_lat_va": 41.2876111, "dec_long_va": -73.75363889, "coord_acy_cd": "1", "dec_coord_datum_cd": "NAD83", "alt_va": 313.93, "alt_acy_va": 0.34, "alt_datum_cd": "NAVD88", "huc_cd": 2030101, "BASIN": "Muscoot" }, "geometry": { "type": "Point", "coordinates": [ -73.75363889, 41.2876111 ] } },
{ "type": "Feature", "properties": { "site_no": "01413088", "agency_cd": "USGS", "station_nm": "EAST BRANCH DELAWARE RIVER AT ROXBURY NY", "site_tp_cd": "ST", "dec_lat_va": 42.29380556, "dec_long_va": -74.5591944, "coord_acy_cd": "1", "dec_coord_datum_cd": "NAD83", "alt_va": 1478.33, "alt_acy_va": 0.01, "alt_datum_cd": "NAVD88", "huc_cd": 2040102, "BASIN": "Pepacton" }, "geometry": { "type": "Point", "coordinates": [ -74.5591944, 42.29380556 ] } },
{ "type": "Feature", "properties": { "site_no": "01413398", "agency_cd": "USGS", "station_nm": "BUSH KILL NEAR ARKVILLE NY", "site_tp_cd": "ST", "dec_lat_va": 42.1508333, "dec_long_va": -74.60138889, "coord_acy_cd": "S", "dec_coord_datum_cd": "NAD83", "alt_va": 1370.79, "alt_acy_va": 0.01, "alt_datum_cd": "NAVD88", "huc_cd": 2040102, "BASIN": "Pepacton" }, "geometry": { "type": "Point", "coordinates": [ -74.60138889, 42.1508333 ] } },
{ "type": "Feature", "properties": { "site_no": "01413408", "agency_cd": "USGS", "station_nm": "DRY BROOK AT ARKVILLE", "site_tp_cd": "ST", "dec_lat_va": 42.14666667, "dec_long_va": -74.6233333, "coord_acy_cd": "S", "dec_coord_datum_cd": "NAD83", "alt_va": 1335.67, "alt_acy_va": 0.01, "alt_datum_cd": "NAVD88", "huc_cd": 2040102, "BASIN": "Pepacton" }, "geometry": { "type": "Point", "coordinates": [ -74.6233333, 42.14666667 ] } },
{ "type": "Feature", "properties": { "site_no": "01413500", "agency_cd": "USGS", "station_nm": "EAST BRANCH DELAWARE RIVER AT MARGARETVILLE NY", "site_tp_cd": "ST", "dec_lat_va": 42.1447222, "dec_long_va": -74.6536111, "coord_acy_cd": "S", "dec_coord_datum_cd": "NAD83", "alt_va": 1301.67, "alt_acy_va": 0.01, "alt_datum_cd": "NAVD88", "huc_cd": 2040102, "BASIN": "Pepacton" }, "geometry": { "type": "Point", "coordinates": [ -74.6536111, 42.1447222 ] } },
{ "type": "Feature", "properties": { "site_no": "01414000", "agency_cd": "USGS", "station_nm": "PLATTE KILL AT DUNRAVEN NY", "site_tp_cd": "ST", "dec_lat_va": 42.13305556, "dec_long_va": -74.6955556, "coord_acy_cd": "S", "dec_coord_datum_cd": "NAD83", "alt_va": 1293.75, "alt_acy_va": 0.1, "alt_datum_cd": "NAVD88", "huc_cd": 2040102, "BASIN": "Pepacton" }, "geometry": { "type": "Point", "coordinates": [ -74.6955556, 42.13305556 ] } },
{ "type": "Feature", "properties": { "site_no": "01414500", "agency_cd": "USGS", "station_nm": "MILL BROOK NEAR DUNRAVEN NY", "site_tp_cd": "ST", "dec_lat_va": 42.1061111, "dec_long_va": -74.7305556, "coord_acy_cd": "S", "dec_coord_datum_cd": "NAD83", "alt_va": 1297.18, "alt_acy_va": 0.14, "alt_datum_cd": "NAVD88", "huc_cd": 2040102, "BASIN": "Pepacton" }, "geometry": { "type": "Point", "coordinates": [ -74.7305556, 42.1061111 ] } },
{ "type": "Feature", "properties": { "site_no": "01414750", "agency_cd": "USGS", "station_nm": "PEPACTON RESERVOIR NEAR LEWBEACH NY", "site_tp_cd": "LK", "dec_lat_va": 42.08752778, "dec_long_va": -74.8196667, "coord_acy_cd": "1", "dec_coord_datum_cd": "NAD83", "alt_va": 0.0, "alt_acy_va": 0.1, "alt_datum_cd": "NAVD88", "huc_cd": 2040102, "BASIN": "Pepacton" }, "geometry": { "type": "Point", "coordinates": [ -74.8196667, 42.08752778 ] } },
{ "type": "Feature", "properties": { "site_no": "01415000", "agency_cd": "USGS", "station_nm": "TREMPER KILL NEAR ANDES NY", "site_tp_cd": "ST", "dec_lat_va": 42.11972222, "dec_long_va": -74.8205, "coord_acy_cd": "1", "dec_coord_datum_cd": "NAD83", "alt_va": 1279.2, "alt_acy_va": 0.0, "alt_datum_cd": "NAVD88", "huc_cd": 20401020402, "BASIN": "Pepacton" }, "geometry": { "type": "Point", "coordinates": [ -74.8205, 42.11972222 ] } },
{ "type": "Feature", "properties": { "site_no": "01421610", "agency_cd": "USGS", "station_nm": "WEST BRANCH DELAWARE RIVER AT HOBART NY", "site_tp_cd": "ST", "dec_lat_va": 42.37138889, "dec_long_va": -74.66888889000001, "coord_acy_cd": "S", "dec_coord_datum_cd": "NAD83", "alt_va": 1621.88, "alt_acy_va": 0.01, "alt_datum_cd": "NAVD88", "huc_cd": 2040101, "BASIN": "Cannonsville" }, "geometry": { "type": "Point", "coordinates": [ -74.66888889, 42.37138889 ] } },
{ "type": "Feature", "properties": { "site_no": "01421618", "agency_cd": "USGS", "station_nm": "TOWN BROOK SOUTHEAST OF HOBART NY", "site_tp_cd": "ST", "dec_lat_va": 42.3611111, "dec_long_va": -74.6622222, "coord_acy_cd": "S", "dec_coord_datum_cd": "NAD83", "alt_va": 1658.43, "alt_acy_va": 0.01, "alt_datum_cd": "NAVD88", "huc_cd": 2040101, "BASIN": "Cannonsville" }, "geometry": { "type": "Point", "coordinates": [ -74.6622222, 42.3611111 ] } },
{ "type": "Feature", "properties": { "site_no": "01421900", "agency_cd": "USGS", "station_nm": "WEST BRANCH DELAWARE RIVER UPSTREAM FROM DELHI NY", "site_tp_cd": "ST", "dec_lat_va": 42.28027778, "dec_long_va": -74.9072222, "coord_acy_cd": "S", "dec_coord_datum_cd": "NAD83", "alt_va": 1350.34, "alt_acy_va": 0.01, "alt_datum_cd": "NAVD88", "huc_cd": 2040101, "BASIN": "Cannonsville" }, "geometry": { "type": "Point", "coordinates": [ -74.9072222, 42.28027778 ] } },
{ "type": "Feature", "properties": { "site_no": "01422500", "agency_cd": "USGS", "station_nm": "LITTLE DELAWARE RIVER NEAR DELHI NY", "site_tp_cd": "ST", "dec_lat_va": 42.25238889, "dec_long_va": -74.9010556, "coord_acy_cd": "1", "dec_coord_datum_cd": "NAD83", "alt_va": 1384.77, "alt_acy_va": 0.01, "alt_datum_cd": "NAVD88", "huc_cd": 2040101, "BASIN": "Cannonsville" }, "geometry": { "type": "Point", "coordinates": [ -74.9010556, 42.25238889 ] } },
{ "type": "Feature", "properties": { "site_no": "01422747", "agency_cd": "USGS", "station_nm": "EAST BROOK EAST OF WALTON NY", "site_tp_cd": "ST", "dec_lat_va": 42.17266667, "dec_long_va": -75.1219167, "coord_acy_cd": "1", "dec_coord_datum_cd": "NAD83", "alt_va": 1219.09, "alt_acy_va": 0.02, "alt_datum_cd": "NAVD88", "huc_cd": 2040101, "BASIN": "Cannonsville" }, "geometry": { "type": "Point", "coordinates": [ -75.1219167, 42.17266667 ] } },
{ "type": "Feature", "properties": { "site_no": "01422779", "agency_cd": "USGS", "station_nm": "WEST BROOK AT AUSTIN LINCOLN PARK AT WALTON NY", "site_tp_cd": "ST", "dec_lat_va": 42.17738889, "dec_long_va": -75.1289167, "coord_acy_cd": "1", "dec_coord_datum_cd": "NAD83", "alt_va": 1219.31, "alt_acy_va": 0.12, "alt_datum_cd": "NAVD88", "huc_cd": 2040101, "BASIN": "Cannonsville" }, "geometry": { "type": "Point", "coordinates": [ -75.1289167, 42.17738889 ] } },
{ "type": "Feature", "properties": { "site_no": "01423000", "agency_cd": "USGS", "station_nm": "WEST BRANCH DELAWARE RIVER AT WALTON NY", "site_tp_cd": "ST", "dec_lat_va": 42.1661111, "dec_long_va": -75.14002778, "coord_acy_cd": "1", "dec_coord_datum_cd": "NAD83", "alt_va": 1187.77, "alt_acy_va": 0.02, "alt_datum_cd": "NAVD88", "huc_cd": 2040101, "BASIN": "Cannonsville" }, "geometry": { "type": "Point", "coordinates": [ -75.14002778, 42.1661111 ] } },
{ "type": "Feature", "properties": { "site_no": "01423910", "agency_cd": "USGS", "station_nm": "CANNONSVILLE RESERVOIR NEAR KELSEY NY", "site_tp_cd": "LK", "dec_lat_va": 42.08880556, "dec_long_va": -75.3125, "coord_acy_cd": "1", "dec_coord_datum_cd": "NAD83", "alt_va": 0.0, "alt_acy_va": 0.09, "alt_datum_cd": "NAVD88", "huc_cd": 2040101, "BASIN": "Cannonsville" }, "geometry": { "type": "Point", "coordinates": [ -75.3125, 42.08880556 ] } },
{ "type": "Feature", "properties": { "site_no": "0142400103", "agency_cd": "USGS", "station_nm": "TROUT CREEK NEAR TROUT CREEK NY", "site_tp_cd": "ST", "dec_lat_va": 42.1735833, "dec_long_va": -75.2794444, "coord_acy_cd": "1", "dec_coord_datum_cd": "NAD83", "alt_va": 1158.87, "alt_acy_va": 0.01, "alt_datum_cd": "NAVD88", "huc_cd": 2040101, "BASIN": "Cannonsville" }, "geometry": { "type": "Point", "coordinates": [ -75.2794444, 42.1735833 ] } },
{ "type": "Feature", "properties": { "site_no": "0143400680", "agency_cd": "USGS", "station_nm": "E BR NEVERSINK R NORTHEAST OF DENNING NY", "site_tp_cd": "ST", "dec_lat_va": 41.96694444, "dec_long_va": -74.4480556, "coord_acy_cd": "S", "dec_coord_datum_cd": "NAD83", "alt_va": 2140.7, "alt_acy_va": 0.01, "alt_datum_cd": "NAVD88", "huc_cd": 2040104, "BASIN": "Neversink" }, "geometry": { "type": "Point", "coordinates": [ -74.4480556, 41.96694444 ] } },
{ "type": "Feature", "properties": { "site_no": "01434017", "agency_cd": "USGS", "station_nm": "EAST BRANCH NEVERSINK RIVER NEAR CLARYVILLE NY", "site_tp_cd": "ST", "dec_lat_va": 41.92527778, "dec_long_va": -74.54027778, "coord_acy_cd": "S", "dec_coord_datum_cd": "NAD83", "alt_va": 1727.44, "alt_acy_va": 0.1, "alt_datum_cd": "NAVD88", "huc_cd": 2040104, "BASIN": "Neversink" }, "geometry": { "type": "Point", "coordinates": [ -74.54027778, 41.92527778 ] } },
{ "type": "Feature", "properties": { "site_no": "01434021", "agency_cd": "USGS", "station_nm": "W BR NEVERSINK R AT WINNISOOK L NR FROST VALLEY NY", "site_tp_cd": "ST", "dec_lat_va": 42.0111111, "dec_long_va": -74.4144444, "coord_acy_cd": "S", "dec_coord_datum_cd": "NAD83", "alt_va": 2675.0, "alt_acy_va": 0.01, "alt_datum_cd": "NAVD88", "huc_cd": 2040104, "BASIN": "Neversink" }, "geometry": { "type": "Point", "coordinates": [ -74.4144444, 42.0111111 ] } },
{ "type": "Feature", "properties": { "site_no": "01434025", "agency_cd": "USGS", "station_nm": "BISCUIT BK ABOVE PIGEON BK AT FROST VALLEY NY", "site_tp_cd": "ST", "dec_lat_va": 41.9960833, "dec_long_va": -74.5002222, "coord_acy_cd": "1", "dec_coord_datum_cd": "NAD83", "alt_va": 2057.25, "alt_acy_va": 0.09, "alt_datum_cd": "NAVD88", "huc_cd": 2040104, "BASIN": "Neversink" }, "geometry": { "type": "Point", "coordinates": [ -74.5002222, 41.9960833 ] } },
{ "type": "Feature", "properties": { "site_no": "01434498", "agency_cd": "USGS", "station_nm": "WEST BRANCH NEVERSINK RIVER AT CLARYVILLE NY", "site_tp_cd": "ST", "dec_lat_va": 41.92041667, "dec_long_va": -74.57438889, "coord_acy_cd": "1", "dec_coord_datum_cd": "NAD83", "alt_va": 1615.82, "alt_acy_va": 0.09, "alt_datum_cd": "NAVD88", "huc_cd": 2040104, "BASIN": "Neversink" }, "geometry": { "type": "Point", "coordinates": [ -74.57438889, 41.92041667 ] } },
{ "type": "Feature", "properties": { "site_no": "01435000", "agency_cd": "USGS", "station_nm": "NEVERSINK RIVER NEAR CLARYVILLE NY", "site_tp_cd": "ST", "dec_lat_va": 41.88994444, "dec_long_va": -74.5898056, "coord_acy_cd": "1", "dec_coord_datum_cd": "NAD83", "alt_va": 1521.83, "alt_acy_va": 0.13, "alt_datum_cd": "NAVD88", "huc_cd": 2040104, "BASIN": "Neversink" }, "geometry": { "type": "Point", "coordinates": [ -74.5898056, 41.88994444 ] } },
{ "type": "Feature", "properties": { "site_no": "01435900", "agency_cd": "USGS", "station_nm": "NEVERSINK RESERVOIR NEAR NEVERSINK NY", "site_tp_cd": "LK", "dec_lat_va": 41.82788889, "dec_long_va": -74.6389167, "coord_acy_cd": "1", "dec_coord_datum_cd": "NAD83", "alt_va": 0.0, "alt_acy_va": 0.11, "alt_datum_cd": "NAVD88", "huc_cd": 2040104, "BASIN": "Neversink" }, "geometry": { "type": "Point", "coordinates": [ -74.6389167, 41.82788889 ] } }
]
}
